[{"OBJECT_NAME":"STARLINK-35024","OBJECT_ID":"2025-192G","EPOCH":"2026-03-09T16:20:35.643840","MEAN_MOTION":15.31013721,"ECCENTRICITY":8.092e-5,"INCLINATION":53.1586,"RA_OF_ASC_NODE":232.3417,"ARG_OF_PERICENTER":35.0037,"MEAN_ANOMALY":325.1017,"EPHEMERIS_TYPE":0,"CLASSIFICATION_TYPE":"U","NORAD_CAT_ID":65410,"ELEMENT_SET_NO":999,"REV_AT_EPOCH":2938,"BSTAR":0.00084166183,"MEAN_MOTION_DOT":0.00025289,"MEAN_MOTION_DDOT":0},{"OBJECT_NAME":"COSMOS 1782","OBJECT_ID":"1986-074A","EPOCH":"2026-03-09T22:40:22.374624","MEAN_MOTION":15.33314157,"ECCENTRICITY":0.00054418,"INCLINATION":82.5242,"RA_OF_ASC_NODE":238.1482,"ARG_OF_PERICENTER":197.7479,"MEAN_ANOMALY":162.3574,"EPHEMERIS_TYPE":0,"CLASSIFICATION_TYPE":"U","NORAD_CAT_ID":16986,"ELEMENT_SET_NO":999,"REV_AT_EPOCH":13134,"BSTAR":0.00042191031,"MEAN_MOTION_DOT":0.00013623,"MEAN_MOTION_DDOT":0}]
